{"id":"284489","name":"L'Archeste","address":{"address_locality":"Paris","postal_code":"75116"},"link":"https://www.lafourchette.com/restaurant/l-archeste/284489"}
{"id":"689","name":"Le Prieuré","address":{"address_locality":"Villeneuve-lès-Avignon","postal_code":"30400"},"link":"https://www.lafourchette.com/restaurant/le-prieure/689"}
{"id":"28557","name":"La Grange de Belle Eglise","address":{"address_locality":"Belle-Église","postal_code":"60540"},"link":"https://www.lafourchette.com/restaurant/la-grange-de-belle-eglise/28557"}
{"id":"294745","name":"Le Fanal - Pascal Borrell","address":{"address_locality":"Banyuls-sur-Mer","postal_code":"66650"},"link":"https://www.lafourchette.com/restaurant/le-fanal-pascal-borrell/294745"}
{"id":"214579","name":"L'Arcane","address":{"address_locality":"Paris","postal_code":"75018"},"link":"https://www.lafourchette.com/restaurant/l-arcane/214579"}
{"id":"19211","name":"Le 1741","address":{"address_locality":"Strasbourg","postal_code":"67000"},"link":"https://www.lafourchette.com/restaurant/le-1741/19211"}
{"id":"5603","name":"JY'S","address":{"address_locality":"Colmar","postal_code":"68000"},"link":"https://www.lafourchette.com/restaurant/jy-s/5603"}
{"id":"10332","name":"Le Refuge des Gourmets","address":{"address_locality":"Machilly","postal_code":"74140"},"link":"https://www.lafourchette.com/restaurant/le-refuge-des-gourmets/10332"}
{"id":"26112","name":"Le 39V Paris - Frédéric Vardon","address":{"address_locality":"Paris","postal_code":"75008"},"link":"https://www.lafourchette.com/restaurant/le-39v-paris-frederic-vardon/26112"}
{"id":"297223","name":"Leroy's Restaurant","address":{"address_locality":"Paris","postal_code":"75006"},"link":"https://www.lafourchette.com/restaurant/leroy-s-restaurant/297223"}
{"id":"3131","name":"Gordon Ramsay au Trianon","address":{"address_locality":"Versailles","postal_code":"78000"},"link":"https://www.lafourchette.com/restaurant/gordon-ramsay-au-trianon/3131"}
{"id":"31135","name":"Le Parc Franck Putelat","address":{"address_locality":"Carcassonne","postal_code":"11000"},"link":"https://www.lafourchette.com/restaurant/le-parc-franck-putelat/31135"}
{"id":"301377","name":"Le Chantecler - Hôtel Negresco","address":{"address_locality":"Nice","postal_code":"06000"},"link":"https://www.lafourchette.com/restaurant/le-chantecler-hotel-negresco/301377"}
{"id":"2728","name":"L'Orangerie du Château","address":{"address_locality":"Blois","postal_code":"41000"},"link":"https://www.lafourchette.com/restaurant/l-orangerie-du-chateau/2728"}
{"id":"31795","name":"L'Auberge du Vert Mont","address":{"address_locality":"Boeschepe","postal_code":"59299"},"link":"https://www.lafourchette.com/restaurant/l-auberge-du-vert-mont/31795"}
{"id":"15593","name":"Bistrot de l'Oasis","address":{"address_locality":"Mandelieu-la-Napoule","postal_code":"06210"},"link":"https://www.lafourchette.com/restaurant/bistrot-de-l-oasis/15593"}
{"id":"310829","name":"Dominique Bouchet","address":{"address_locality":"Paris","postal_code":"75008"},"link":"https://www.lafourchette.com/restaurant/dominique-bouchet/310829"}
{"id":"69372","name":"Carré des Feuillants - Alain Dutournier","address":{"address_locality":"Paris","postal_code":"75001"},"link":"https://www.lafourchette.com/restaurant/carre-des-feuillants-alain-dutournier/69372"}
{"id":"204609","name":"Le Castellaras","address":{"address_locality":"Fayence","postal_code":"83440"},"link":"https://www.lafourchette.com/restaurant/le-castellaras/204609"}
{"id":"30315","name":"Les Climats","address":{"address_locality":"Paris","postal_code":"75007"},"link":"https://www.lafourchette.com/restaurant/les-climats/30315"}
{"id":"15413","name":"Les Trois Dômes - Christian Lherm","address":{"address_locality":"Lyon","postal_code":"69002"},"link":"https://www.lafourchette.com/restaurant/les-trois-domes-christian-lherm/15413"}
{"id":"202436","name":"Le Chateaubriand","address":{"address_locality":"Paris","postal_code":"75011"},"link":"https://www.lafourchette.com/restaurant/le-chateaubriand/202436"}
{"id":"15264","name":"Hôtel Restaurant Yoann CONTE, bord du lac","address":{"address_locality":"Veyrier-du-Lac","postal_code":"74290"},"link":"https://www.lafourchette.com/restaurant/hotel-restaurant-yoann-conte,-bord-du-lac/15264"}
{"id":"2714","name":"Auberge des Templiers","address":{"address_locality":"Boismorand","postal_code":"45290"},"link":"https://www.lafourchette.com/restaurant/auberge-des-templiers/2714"}
